[{"OBJECT_NAME":"FENGYUN 1C DEB","OBJECT_ID":"1999-025AVX","EPOCH":"2023-09-15T12:08:49.611264","MEAN_MOTION":14.12602713,"ECCENTRICITY":0.0032593,"INCLINATION":98.6327,"RA_OF_ASC_NODE":260.4089,"ARG_OF_PERICENTER":315.5171,"MEAN_ANOMALY":197.1707,"EPHEMERIS_TYPE":0,"CLASSIFICATION_TYPE":"U","NORAD_CAT_ID":30837,"ELEMENT_SET_NO":999,"REV_AT_EPOCH":85244,"BSTAR":0.00042571,"MEAN_MOTION_DOT":7.49e-6,"MEAN_MOTION_DDOT":0},{"OBJECT_NAME":"FENGYUN 1C DEB","OBJECT_ID":"1999-025AVY","EPOCH":"2023-09-15T12:51:24.322752","MEAN_MOTION":14.29901308,"ECCENTRICITY":0.0052668,"INCLINATION":99.0819,"RA_OF_ASC_NODE":116.738,"ARG_OF_PERICENTER":47.0128,"MEAN_ANOMALY":313.5449,"EPHEMERIS_TYPE":0,"CLASSIFICATION_TYPE":"U","NORAD_CAT_ID":30838,"ELEMENT_SET_NO":999,"REV_AT_EPOCH":85691,"BSTAR":0.0018767,"MEAN_MOTION_DOT":4.861e-5,"MEAN_MOTION_DDOT":0},{"OBJECT_NAME":"FENGYUN 1C DEB","OBJECT_ID":"1999-025AWA","EPOCH":"2023-09-15T13:19:15.201120","MEAN_MOTION":14.5018483,"ECCENTRICITY":0.0251887,"INCLINATION":98.0852,"RA_OF_ASC_NODE":287.3232,"ARG_OF_PERICENTER":41.0749,"MEAN_ANOMALY":320.9112,"EPHEMERIS_TYPE":0,"CLASSIFICATION_TYPE":"U","NORAD_CAT_ID":30840,"ELEMENT_SET_NO":999,"REV_AT_EPOCH":61213,"BSTAR":0.00081806,"MEAN_MOTION_DOT":4.741e-5,"MEAN_MOTION_DDOT":0},{"OBJECT_NAME":"FENGYUN 1C DEB","OBJECT_ID":"1999-025AWD","EPOCH":"2023-09-15T06:12:13.178304","MEAN_MOTION":14.49790466,"ECCENTRICITY":0.0154953,"INCLINATION":98.9393,"RA_OF_ASC_NODE":271.7524,"ARG_OF_PERICENTER":71.2668,"MEAN_ANOMALY":290.5269,"EPHEMERIS_TYPE":0,"CLASSIFICATION_TYPE":"U","NORAD_CAT_ID":30843,"ELEMENT_SET_NO":999,"REV_AT_EPOCH":87439,"BSTAR":0.00039442,"MEAN_MOTION_DOT":1.717e-5,"MEAN_MOTION_DDOT":0},{"OBJECT_NAME":"FENGYUN 1C DEB","OBJECT_ID":"1999-025AWF","EPOCH":"2023-09-14T23:43:39.023040","MEAN_MOTION":13.75862514,"ECCENTRICITY":0.0194115,"INCLINATION":98.4602,"RA_OF_ASC_NODE":341.8733,"ARG_OF_PERICENTER":326.7897,"MEAN_ANOMALY":213.4822,"EPHEMERIS_TYPE":0,"CLASSIFICATION_TYPE":"U","NORAD_CAT_ID":30845,"ELEMENT_SET_NO":999,"REV_AT_EPOCH":82966,"BSTAR":0.00035294,"MEAN_MOTION_DOT":3.54e-6,"MEAN_MOTION_DDOT":0},{"OBJECT_NAME":"FENGYUN 1C DEB","OBJECT_ID":"1999-025AWG","EPOCH":"2023-09-15T13:31:43.527936","MEAN_MOTION":14.32966807,"ECCENTRICITY":0.0062339,"INCLINATION":99.2625,"RA_OF_ASC_NODE":355.6531,"ARG_OF_PERICENTER":201.2354,"MEAN_ANOMALY":288.0702,"EPHEMERIS_TYPE":0,"CLASSIFICATION_TYPE":"U","NORAD_CAT_ID":30846,"ELEMENT_SET_NO":999,"REV_AT_EPOCH":86161,"BSTAR":0.0011749,"MEAN_MOTION_DOT":3.235e-5,"MEAN_MOTION_DDOT":0},{"OBJECT_NAME":"FENGYUN 1C DEB","OBJECT_ID":"1999-025AWH","EPOCH":"2023-09-15T09:44:31.470720","MEAN_MOTION":14.07416027,"ECCENTRICITY":0.0076841,"INCLINATION":98.6804,"RA_OF_ASC_NODE":71.0379,"ARG_OF_PERICENTER":141.8121,"MEAN_ANOMALY":287.7036,"EPHEMERIS_TYPE":0,"CLASSIFICATION_TYPE":"U","NORAD_CAT_ID":30847,"ELEMENT_SET_NO":999,"REV_AT_EPOCH":84490,"BSTAR":0.0022013,"MEAN_MOTION_DOT":3.764e-5,"MEAN_MOTION_DDOT":0},{"OBJECT_NAME":"FENGYUN 1C DEB","OBJECT_ID":"1999-025AWJ","EPOCH":"2023-09-13T08:34:01.595424","MEAN_MOTION":14.24909704,"ECCENTRICITY":0.004979,"INCLINATION":99.0263,"RA_OF_ASC_NODE":47.5918,"ARG_OF_PERICENTER":194.7794,"MEAN_ANOMALY":165.1932,"EPHEMERIS_TYPE":0,"CLASSIFICATION_TYPE":"U","NORAD_CAT_ID":30848,"ELEMENT_SET_NO":999,"REV_AT_EPOCH":85607,"BSTAR":0.0025134,"MEAN_MOTION_DOT":5.906e-5,"MEAN_MOTION_DDOT":0},{"OBJECT_NAME":"FENGYUN 1C DEB","OBJECT_ID":"1999-025AWK","EPOCH":"2023-09-15T00:50:45.750336","MEAN_MOTION":14.11712473,"ECCENTRICITY":0.005509,"INCLINATION":99.1083,"RA_OF_ASC_NODE":292.549,"ARG_OF_PERICENTER":162.2265,"MEAN_ANOMALY":262.4658,"EPHEMERIS_TYPE":0,"CLASSIFICATION_TYPE":"U","NORAD_CAT_ID":30849,"ELEMENT_SET_NO":999,"REV_AT_EPOCH":84777,"BSTAR":0.0016807,"MEAN_MOTION_DOT":3.059e-5,"MEAN_MOTION_DDOT":0},{"OBJECT_NAME":"FENGYUN 1C DEB","OBJECT_ID":"1999-025AWL","EPOCH":"2023-09-15T17:47:01.593024","MEAN_MOTION":14.05458218,"ECCENTRICITY":0.0130872,"INCLINATION":98.4297,"RA_OF_ASC_NODE":164.2525,"ARG_OF_PERICENTER":22.7709,"MEAN_ANOMALY":41.7491,"EPHEMERIS_TYPE":0,"CLASSIFICATION_TYPE":"U","NORAD_CAT_ID":30850,"ELEMENT_SET_NO":999,"REV_AT_EPOCH":84261,"BSTAR":0.0027034,"MEAN_MOTION_DOT":4.702e-5,"MEAN_MOTION_DDOT":0},{"OBJECT_NAME":"FENGYUN 1C DEB","OBJECT_ID":"1999-025AWM","EPOCH":"2023-09-15T07:19:27.745536","MEAN_MOTION":14.52751464,"ECCENTRICITY":0.0057548,"INCLINATION":98.5357,"RA_OF_ASC_NODE":193.226,"ARG_OF_PERICENTER":340.4023,"MEAN_ANOMALY":19.496,"EPHEMERIS_TYPE":0,"CLASSIFICATION_TYPE":"U","NORAD_CAT_ID":30851,"ELEMENT_SET_NO":999,"REV_AT_EPOCH":86251,"BSTAR":0.0058293,"MEAN_MOTION_DOT":0.00024486,"MEAN_MOTION_DDOT":0},{"OBJECT_NAME":"FENGYUN 1C DEB","OBJECT_ID":"1999-025AWN","EPOCH":"2023-09-15T12:40:02.072928","MEAN_MOTION":14.07878705,"ECCENTRICITY":0.0058866,"INCLINATION":98.808,"RA_OF_ASC_NODE":287.2758,"ARG_OF_PERICENTER":30.3349,"MEAN_ANOMALY":330.1206,"EPHEMERIS_TYPE":0,"CLASSIFICATION_TYPE":"U","NORAD_CAT_ID":30852,"ELEMENT_SET_NO":999,"REV_AT_EPOCH":84845,"BSTAR":0.00062487,"MEAN_MOTION_DOT":1.034e-5,"MEAN_MOTION_DDOT":0},{"OBJECT_NAME":"FENGYUN 1C DEB","OBJECT_ID":"1999-025AWS","EPOCH":"2023-09-15T12:56:36.919680","MEAN_MOTION":14.17570751,"ECCENTRICITY":0.0127305,"INCLINATION":98.2474,"RA_OF_ASC_NODE":116.5579,"ARG_OF_PERICENTER":152.143,"MEAN_ANOMALY":238.9054,"EPHEMERIS_TYPE":0,"CLASSIFICATION_TYPE":"U","NORAD_CAT_ID":30856,"ELEMENT_SET_NO":999,"REV_AT_EPOCH":84813,"BSTAR":0.0032384,"MEAN_MOTION_DOT":7.091e-5,"MEAN_MOTION_DDOT":0},{"OBJECT_NAME":"FENGYUN 1C DEB","OBJECT_ID":"1999-025AWT","EPOCH":"2023-09-15T08:51:15.318720","MEAN_MOTION":14.17569913,"ECCENTRICITY":0.0069081,"INCLINATION":98.9567,"RA_OF_ASC_NODE":209.5325,"ARG_OF_PERICENTER":156.5327,"MEAN_ANOMALY":203.9025,"EPHEMERIS_TYPE":0,"CLASSIFICATION_TYPE":"U","NORAD_CAT_ID":30857,"ELEMENT_SET_NO":999,"REV_AT_EPOCH":84994,"BSTAR":0.0020566,"MEAN_MOTION_DOT":4.234e-5,"MEAN_MOTION_DDOT":0},{"OBJECT_NAME":"FENGYUN 1C DEB","OBJECT_ID":"1999-025AWU","EPOCH":"2023-09-15T08:19:50.253024","MEAN_MOTION":14.15547004,"ECCENTRICITY":0.0029604,"INCLINATION":98.9001,"RA_OF_ASC_NODE":309.6402,"ARG_OF_PERICENTER":287.4888,"MEAN_ANOMALY":207.784,"EPHEMERIS_TYPE":0,"CLASSIFICATION_TYPE":"U","NORAD_CAT_ID":30858,"ELEMENT_SET_NO":999,"REV_AT_EPOCH":85378,"BSTAR":0.00050906,"MEAN_MOTION_DOT":9.55e-6,"MEAN_MOTION_DDOT":0},{"OBJECT_NAME":"FENGYUN 1C DEB","OBJECT_ID":"1999-025AWV","EPOCH":"2023-09-15T10:55:11.859168","MEAN_MOTION":14.26128688,"ECCENTRICITY":0.0046675,"INCLINATION":98.9643,"RA_OF_ASC_NODE":265.643,"ARG_OF_PERICENTER":280.4083,"MEAN_ANOMALY":79.1838,"EPHEMERIS_TYPE":0,"CLASSIFICATION_TYPE":"U","NORAD_CAT_ID":30859,"ELEMENT_SET_NO":999,"REV_AT_EPOCH":85267,"BSTAR":0.00246,"MEAN_MOTION_DOT":5.91e-5,"MEAN_MOTION_DDOT":0}]
