FENGYUN 1C DEB          
1 30837U 99025AVX 23258.50612976  .00000749  00000+0  42571-3 0  9993
2 30837  98.6327 260.4089 0032593 315.5171 197.1707 14.12602713852444
FENGYUN 1C DEB          
1 30838U 99025AVY 23258.53569818  .00004861  00000+0  18767-2 0  9991
2 30838  99.0819 116.7380 0052668  47.0128 313.5449 14.29901308856910
FENGYUN 1C DEB          
1 30840U 99025AWA 23258.55503705  .00004741  00000+0  81806-3 0  9991
2 30840  98.0852 287.3232 0251887  41.0749 320.9112 14.50184830612137
FENGYUN 1C DEB          
1 30843U 99025AWD 23258.25848586  .00001717  00000+0  39442-3 0  9999
2 30843  98.9393 271.7524 0154953  71.2668 290.5269 14.49790466874390
FENGYUN 1C DEB          
1 30845U 99025AWF 23257.98864610  .00000354  00000+0  35294-3 0  9993
2 30845  98.4602 341.8733 0194115 326.7897 213.4822 13.75862514829668
FENGYUN 1C DEB          
1 30846U 99025AWG 23258.56369824  .00003235  00000+0  11749-2 0  9995
2 30846  99.2625 355.6531 0062339 201.2354 288.0702 14.32966807861619
FENGYUN 1C DEB          
1 30847U 99025AWH 23258.40591980  .00003764  00000+0  22013-2 0  9992
2 30847  98.6804  71.0379 0076841 141.8121 287.7036 14.07416027844900
FENGYUN 1C DEB          
1 30848U 99025AWJ 23256.35696291  .00005906  00000+0  25134-2 0  9993
2 30848  99.0263  47.5918 0049790 194.7794 165.1932 14.24909704856071
FENGYUN 1C DEB          
1 30849U 99025AWK 23258.03525174  .00003059  00000+0  16807-2 0  9996
2 30849  99.1083 292.5490 0055090 162.2265 262.4658 14.11712473847777
FENGYUN 1C DEB          
1 30850U 99025AWL 23258.74099066  .00004702  00000+0  27034-2 0  9992
2 30850  98.4297 164.2525 0130872  22.7709  41.7491 14.05458218842615
FENGYUN 1C DEB          
1 30851U 99025AWM 23258.30518224  .00024486  00000+0  58293-2 0  9999
2 30851  98.5357 193.2260 0057548 340.4023  19.4960 14.52751464862514
FENGYUN 1C DEB          
1 30852U 99025AWN 23258.52780177  .00001034  00000+0  62487-3 0  9997
2 30852  98.8080 287.2758 0058866  30.3349 330.1206 14.07878705848458
FENGYUN 1C DEB          
1 30856U 99025AWS 23258.53931620  .00007091  00000+0  32384-2 0  9994
2 30856  98.2474 116.5579 0127305 152.1430 238.9054 14.17570751848139
FENGYUN 1C DEB          
1 30857U 99025AWT 23258.36892730  .00004234  00000+0  20566-2 0  9999
2 30857  98.9567 209.5325 0069081 156.5327 203.9025 14.17569913849949
FENGYUN 1C DEB          
1 30858U 99025AWU 23258.34710941  .00000955  00000+0  50906-3 0  9999
2 30858  98.9001 309.6402 0029604 287.4888 207.7840 14.15547004853783
FENGYUN 1C DEB          
1 30859U 99025AWV 23258.45499837  .00005910  00000+0  24600-2 0  9997
2 30859  98.9643 265.6430 0046675 280.4083  79.1838 14.26128688852675
